{
  "type": "FeatureCollection",
  "features": [
    {
      "type": "Feature",
      "properties": {
        "norad_id": 59600,
        "name": "GSAT0227 (GALILEO 30)",
        "group": "galileo",
        "lat": 15.621741183913274,
        "lon": 117.1705324579013,
        "alt_km": 23221.477633444225,
        "timestamp": "2025-12-27T03:58:44.415857+00:00",
        "meta_object_name": "GSAT0227 (GALILEO 30)",
        "meta_object_id": "2024-079C",
        "meta_epoch": "2025-12-21T20:31:35.455872",
        "meta_mean_motion": 1.70474868,
        "meta_eccentricity": 0.00028355,
        "meta_inclination": 55.0019,
        "meta_ra_of_asc_node": 106.0394,
        "meta_arg_of_pericenter": 117.3615,
        "meta_mean_anomaly": 242.6419,
        "meta_ephemeris_type": 0,
        "meta_classification_type": "U",
        "meta_norad_cat_id": 59600,
        "meta_element_set_no": 999,
        "meta_rev_at_epoch": 1034,
        "meta_bstar": 0,
        "meta_mean_motion_dot": 4e-08,
        "meta_mean_motion_ddot": 0,
        "tle_line1": "1 59600U 24079C   25355.85527148  .00000004  00000+0  00000+0 0  9994",
        "tle_line2": "2 59600  55.0019 106.0394 0002835 117.3615 242.6419  1.70474868 10348"
      },
      "geometry": {
        "type": "Point",
        "coordinates": [
          117.1705324579013,
          15.621741183913274
        ]
      }
    },
    {
      "type": "Feature",
      "properties": {
        "norad_id": 61182,
        "name": "GSAT0232 (GALILEO 32)",
        "group": "galileo",
        "lat": -27.07264324742265,
        "lon": 66.83318986903775,
        "alt_km": 23220.272590268836,
        "timestamp": "2025-12-27T03:58:44.415868+00:00",
        "meta_object_name": "GSAT0232 (GALILEO 32)",
        "meta_object_id": "2024-167A",
        "meta_epoch": "2025-12-24T18:25:47.943264",
        "meta_mean_motion": 1.70473505,
        "meta_eccentricity": 0.0001887,
        "meta_inclination": 55.2374,
        "meta_ra_of_asc_node": 226.1008,
        "meta_arg_of_pericenter": 202.1814,
        "meta_mean_anomaly": 339.8736,
        "meta_ephemeris_type": 0,
        "meta_classification_type": "U",
        "meta_norad_cat_id": 61182,
        "meta_element_set_no": 999,
        "meta_rev_at_epoch": 790,
        "meta_bstar": 0,
        "meta_mean_motion_dot": 7.1e-07,
        "meta_mean_motion_ddot": 0,
        "tle_line1": "1 61182U 24167A   25358.76791601  .00000071  00000+0  00000+0 0  9994",
        "tle_line2": "2 61182  55.2374 226.1008 0001887 202.1814 339.8736  1.70473505  7904"
      },
      "geometry": {
        "type": "Point",
        "coordinates": [
          66.83318986903775,
          -27.07264324742265
        ]
      }
    },
    {
      "type": "Feature",
      "properties": {
        "norad_id": 61183,
        "name": "GSAT0226 (GALILEO 31)",
        "group": "galileo",
        "lat": -27.14745752833861,
        "lon": -154.80346675023017,
        "alt_km": 23228.715472528333,
        "timestamp": "2025-12-27T03:58:44.415878+00:00",
        "meta_object_name": "GSAT0226 (GALILEO 31)",
        "meta_object_id": "2024-167B",
        "meta_epoch": "2025-12-25T01:44:41.758656",
        "meta_mean_motion": 1.70473602,
        "meta_eccentricity": 0.00012523,
        "meta_inclination": 55.236,
        "meta_ra_of_asc_node": 226.0978,
        "meta_arg_of_pericenter": 109.4084,
        "meta_mean_anomaly": 12.3648,
        "meta_ephemeris_type": 0,
        "meta_classification_type": "U",
        "meta_norad_cat_id": 61183,
        "meta_element_set_no": 999,
        "meta_rev_at_epoch": 788,
        "meta_bstar": 0,
        "meta_mean_motion_dot": 7.1e-07,
        "meta_mean_motion_ddot": 0,
        "tle_line1": "1 61183U 24167B   25359.07270554  .00000071  00000+0  00000+0 0  9999",
        "tle_line2": "2 61183  55.2360 226.0978 0001252 109.4084  12.3648  1.70473602  7889"
      },
      "geometry": {
        "type": "Point",
        "coordinates": [
          -154.80346675023017,
          -27.14745752833861
        ]
      }
    },
    {
      "type": "Feature",
      "properties": {
        "norad_id": 67160,
        "name": "GALILEO A",
        "group": "galileo",
        "lat": -27.37572870386792,
        "lon": -51.13755524161576,
        "alt_km": 22924.774333939135,
        "timestamp": "2025-12-27T03:58:44.415888+00:00",
        "meta_object_name": "GALILEO A",
        "meta_object_id": "2025-302A",
        "meta_epoch": "2025-12-18T03:30:19.486368",
        "meta_mean_motion": 1.72906186,
        "meta_eccentricity": 0.00084238,
        "meta_inclination": 54.2406,
        "meta_ra_of_asc_node": 107.2544,
        "meta_arg_of_pericenter": 237.6458,
        "meta_mean_anomaly": 122.2317,
        "meta_ephemeris_type": 0,
        "meta_classification_type": "U",
        "meta_norad_cat_id": 67160,
        "meta_element_set_no": 999,
        "meta_rev_at_epoch": 2,
        "meta_bstar": 0,
        "meta_mean_motion_dot": -7e-08,
        "meta_mean_motion_ddot": 0,
        "tle_line1": "1 67160U 25302A   25352.14605887 -.00000007  00000+0  00000+0 0  9994",
        "tle_line2": "2 67160  54.2406 107.2544 0008423 237.6458 122.2317  1.72906186    28"
      },
      "geometry": {
        "type": "Point",
        "coordinates": [
          -51.13755524161576,
          -27.37572870386792
        ]
      }
    },
    {
      "type": "Feature",
      "properties": {
        "norad_id": 67161,
        "name": "GALILEO B",
        "group": "galileo",
        "lat": -29.129967035931422,
        "lon": -49.388836180208,
        "alt_km": 22929.40457204125,
        "timestamp": "2025-12-27T03:58:44.415899+00:00",
        "meta_object_name": "GALILEO B",
        "meta_object_id": "2025-302B",
        "meta_epoch": "2025-12-26T19:37:10.068096",
        "meta_mean_motion": 1.72972318,
        "meta_eccentricity": 0.0004777,
        "meta_inclination": 54.2304,
        "meta_ra_of_asc_node": 106.9693,
        "meta_arg_of_pericenter": 256.4913,
        "meta_mean_anomaly": 103.4489,
        "meta_ephemeris_type": 0,
        "meta_classification_type": "U",
        "meta_norad_cat_id": 67161,
        "meta_element_set_no": 999,
        "meta_rev_at_epoch": 18,
        "meta_bstar": 0,
        "meta_mean_motion_dot": 1.6e-07,
        "meta_mean_motion_ddot": 0,
        "tle_line1": "1 67161U 25302B   25360.81747764  .00000016  00000+0  00000+0 0  9998",
        "tle_line2": "2 67161  54.2304 106.9693 0004777 256.4913 103.4489  1.72972318   188"
      },
      "geometry": {
        "type": "Point",
        "coordinates": [
          -49.388836180208,
          -29.129967035931422
        ]
      }
    }
  ]
}